start=new Date('2022-01-11T00:00:00.000Z').valueOf();
sats=[{"OBJECT_NAME":"STARLINK-1974","BSTAR":"-0.00175240000000","TLE_LINE1":"1 47629U 21012K   22010.91667824 -.00026290  00000-0 -17524-2 0  9994","RCS_SIZE":"LARGE","FILE":"3269118","MEAN_MOTION_DDOT":"0.0000000000000","OBJECT_TYPE":"PAYLOAD","REF_FRAME":"TEME","OBJECT_ID":"2021-012K","INCLINATION":"53.0546","MEAN_MOTION_DOT":"-0.00026290","PERIAPSIS":"545.363","MEAN_ANOMALY":"336.9288","PERIOD":"95.592","TLE_LINE2":"2 47629  53.0546 289.6442 0002670  52.1141 336.9288 15.06400481  3604","SITE":"AFETR","GP_ID":"193624383","EPOCH":"2022-01-10T22:00:00.999936","ELEMENT_SET_NO":"999","APOAPSIS":"549.061","COUNTRY_CODE":"US","LAUNCH_DATE":"2021-02-16","MEAN_ELEMENT_THEORY":"SGP4","NORAD_CAT_ID":"47629","TIME_SYSTEM":"UTC","EPHEMERIS_TYPE":"0","DECAY_DATE":null,"SEMIMAJOR_AXIS":"6925.347","REV_AT_EPOCH":"360","ECCENTRICITY":"0.00026700","CENTER_NAME":"EARTH","MEAN_MOTION":"15.06400481","RA_OF_ASC_NODE":"289.6442","ARG_OF_PERICENTER":"52.1141","CLASSIFICATION_TYPE":"U"},{"LAUNCH_DATE":"2021-02-16","ELEMENT_SET_NO":"999","APOAPSIS":"548.336","COUNTRY_CODE":"US","EPOCH":"2022-01-10T11:06:05.885568","EPHEMERIS_TYPE":"0","DECAY_DATE":null,"REV_AT_EPOCH":"5126","SEMIMAJOR_AXIS":"6925.330","ECCENTRICITY":"0.00016480","TIME_SYSTEM":"UTC","NORAD_CAT_ID":"47630","MEAN_ELEMENT_THEORY":"SGP4","ARG_OF_PERICENTER":"69.4104","RA_OF_ASC_NODE":"31.6856","CENTER_NAME":"EARTH","MEAN_MOTION":"15.06406126","CLASSIFICATION_TYPE":"U","RCS_SIZE":"LARGE","BSTAR":"0.00006530800000","TLE_LINE1":"1 47630U 21012L   22010.46256812  .00000691  00000-0  65308-4 0  9997","OBJECT_NAME":"STARLINK-1983","REF_FRAME":"TEME","OBJECT_TYPE":"PAYLOAD","MEAN_MOTION_DDOT":"0.0000000000000","FILE":"3268856","PERIAPSIS":"546.053","INCLINATION":"53.0582","MEAN_MOTION_DOT":"0.00000691","OBJECT_ID":"2021-012L","GP_ID":"193594722","SITE":"AFETR","MEAN_ANOMALY":"290.7061","TLE_LINE2":"2 47630  53.0582  31.6856 0001648  69.4104 290.7061 15.06406126 51267","PERIOD":"95.592"},{"MEAN_MOTION_DDOT":"0.0000000000000","FILE":"3269118","REF_FRAME":"TEME","OBJECT_TYPE":"PAYLOAD","BSTAR":"0.00018308000000","TLE_LINE1":"1 47631U 21012M   22010.91667824  .00029873  00000-0  18308-3 0  9997","OBJECT_NAME":"STARLINK-1985","RCS_SIZE":"LARGE","TLE_LINE2":"2 47631  53.0362 269.6633 0001852 110.7506  74.0677 15.77069436  3702","PERIOD":"91.309","MEAN_ANOMALY":"74.0677","GP_ID":"193625384","SITE":"AFETR","OBJECT_ID":"2021-012M","PERIAPSIS":"337.507","MEAN_MOTION_DOT":"0.00029873","INCLINATION":"53.0362","NORAD_CAT_ID":"47631","MEAN_ELEMENT_THEORY":"SGP4","DECAY_DATE":null,"SEMIMAJOR_AXIS":"6716.886","REV_AT_EPOCH":"370","ECCENTRICITY":"0.00018520","EPHEMERIS_TYPE":"0","TIME_SYSTEM":"UTC","EPOCH":"2022-01-10T22:00:00.999936","LAUNCH_DATE":"2021-02-16","APOAPSIS":"339.995","COUNTRY_CODE":"US","ELEMENT_SET_NO":"999","CLASSIFICATION_TYPE":"U","RA_OF_ASC_NODE":"269.6633","MEAN_MOTION":"15.77069436","CENTER_NAME":"EARTH","ARG_OF_PERICENTER":"110.7506"},{"TLE_LINE2":"2 47632  53.0572 314.6519 0001522  73.4130 223.2295 15.06409603  3599","PERIOD":"95.592","MEAN_ANOMALY":"223.2295","SITE":"AFETR","GP_ID":"193625634","OBJECT_ID":"2021-012N","PERIAPSIS":"546.130","INCLINATION":"53.0572","MEAN_MOTION_DOT":"-0.00040634","MEAN_MOTION_DDOT":"0.0000000000000","FILE":"3269118","REF_FRAME":"TEME","OBJECT_TYPE":"PAYLOAD","TLE_LINE1":"1 47632U 21012N   22010.91667824 -.00040634  00000-0 -27239-2 0  9990","BSTAR":"-0.00272390000000","OBJECT_NAME":"STARLINK-1992","RCS_SIZE":"LARGE","CLASSIFICATION_TYPE":"U","RA_OF_ASC_NODE":"314.6519","MEAN_MOTION":"15.06409603","CENTER_NAME":"EARTH","ARG_OF_PERICENTER":"73.4130","NORAD_CAT_ID":"47632","MEAN_ELEMENT_THEORY":"SGP4","DECAY_DATE":null,"SEMIMAJOR_AXIS":"6925.319","ECCENTRICITY":"0.00015220","REV_AT_EPOCH":"359","EPHEMERIS_TYPE":"0","TIME_SYSTEM":"UTC","EPOCH":"2022-01-10T22:00:00.999936","LAUNCH_DATE":"2021-02-16","COUNTRY_CODE":"US","APOAPSIS":"548.238","ELEMENT_SET_NO":"999"},{"TLE_LINE2":"2 47633  53.0550  50.1244 0001338  72.8405 287.2731 15.06385392 51075","PERIOD":"95.593","MEAN_ANOMALY":"287.2731","SITE":"AFETR","GP_ID":"193624883","OBJECT_ID":"2021-012P","PERIAPSIS":"546.332","INCLINATION":"53.0550","MEAN_MOTION_DOT":"0.00004672","MEAN_MOTION_DDOT":"0.0000000000000","FILE":"3269118","REF_FRAME":"TEME","OBJECT_TYPE":"PAYLOAD","TLE_LINE1":"1 47633U 21012P   22010.81183984  .00004672  00000-0  33247-3 0  9997","BSTAR":"0.00033247000000","OBJECT_NAME":"STARLINK-2009","RCS_SIZE":"LARGE","CLASSIFICATION_TYPE":"U","RA_OF_ASC_NODE":"50.1244","MEAN_MOTION":"15.06385392","CENTER_NAME":"EARTH","ARG_OF_PERICENTER":"72.8405","NORAD_CAT_ID":"47633","MEAN_ELEMENT_THEORY":"SGP4","DECAY_DATE":null,"SEMIMAJOR_AXIS":"6925.393","REV_AT_EPOCH":"5107","ECCENTRICITY":"0.00013380","EPHEMERIS_TYPE":"0","TIME_SYSTEM":"UTC","EPOCH":"2022-01-10T19:29:02.962176","LAUNCH_DATE":"2021-02-16","COUNTRY_CODE":"US","APOAPSIS":"548.185","ELEMENT_SET_NO":"999"},{"ARG_OF_PERICENTER":"84.8628","RA_OF_ASC_NODE":"51.4210","CENTER_NAME":"EARTH","MEAN_MOTION":"15.06410857","CLASSIFICATION_TYPE":"U","LAUNCH_DATE":"2021-02-16","ELEMENT_SET_NO":"999","APOAPSIS":"548.100","COUNTRY_CODE":"US","EPOCH":"2022-01-10T12:35:01.293792","EPHEMERIS_TYPE":"0","ECCENTRICITY":"0.00013280","DECAY_DATE":null,"SEMIMAJOR_AXIS":"6925.315","REV_AT_EPOCH":"5100","TIME_SYSTEM":"UTC","MEAN_ELEMENT_THEORY":"SGP4","NORAD_CAT_ID":"47634","PERIAPSIS":"546.261","INCLINATION":"53.0554","MEAN_MOTION_DOT":"-0.00000263","OBJECT_ID":"2021-012Q","GP_ID":"193594223","SITE":"AFETR","MEAN_ANOMALY":"275.2513","PERIOD":"95.591","TLE_LINE2":"2 47634  53.0554  51.4210 0001328  84.8628 275.2513 15.06410857 51009","RCS_SIZE":"LARGE","TLE_LINE1":"1 47634U 21012Q   22010.52432053 -.00000263  00000-0  12120-5 0  9992","BSTAR":"0.00000121200000","OBJECT_NAME":"STARLINK-2010","REF_FRAME":"TEME","OBJECT_TYPE":"PAYLOAD","MEAN_MOTION_DDOT":"0.0000000000000","FILE":"3268856"},{"TIME_SYSTEM":"UTC","EPHEMERIS_TYPE":"0","DECAY_DATE":null,"ECCENTRICITY":"0.00017130","SEMIMAJOR_AXIS":"6925.342","REV_AT_EPOCH":"5187","NORAD_CAT_ID":"47635","MEAN_ELEMENT_THEORY":"SGP4","ELEMENT_SET_NO":"999","APOAPSIS":"548.393","COUNTRY_CODE":"US","LAUNCH_DATE":"2021-02-16","EPOCH":"2022-01-10T22:00:00.999936","CLASSIFICATION_TYPE":"U","ARG_OF_PERICENTER":"65.9334","CENTER_NAME":"EARTH","MEAN_MOTION":"15.06402288","RA_OF_ASC_NODE":"314.6494","OBJECT_TYPE":"PAYLOAD","REF_FRAME":"TEME","FILE":"3268898","MEAN_MOTION_DDOT":"0.0000000000000","RCS_SIZE":"LARGE","OBJECT_NAME":"STARLINK-2012","BSTAR":"-0.00133830000000","TLE_LINE1":"1 47635U 21012R   22010.91667824 -.00020161  00000-0 -13383-2 0  9991","SITE":"AFETR","GP_ID":"193598574","MEAN_ANOMALY":"70.7126","PERIOD":"95.592","TLE_LINE2":"2 47635  53.0554 314.6494 0001713  65.9334  70.7126 15.06402288 51872","INCLINATION":"53.0554","MEAN_MOTION_DOT":"-0.00020161","PERIAPSIS":"546.020","OBJECT_ID":"2021-012R"},{"ARG_OF_PERICENTER":"190.7088","RA_OF_ASC_NODE":"30.2731","MEAN_MOTION":"15.06403139","CENTER_NAME":"EARTH","CLASSIFICATION_TYPE":"U","LAUNCH_DATE":"2021-02-16","APOAPSIS":"549.557","COUNTRY_CODE":"US","ELEMENT_SET_NO":"999","EPOCH":"2022-01-10T18:38:36.556800","SEMIMAJOR_AXIS":"6925.339","DECAY_DATE":null,"REV_AT_EPOCH":"5132","ECCENTRICITY":"0.00033980","EPHEMERIS_TYPE":"0","TIME_SYSTEM":"UTC","MEAN_ELEMENT_THEORY":"SGP4","NORAD_CAT_ID":"47636","PERIAPSIS":"544.851","INCLINATION":"53.0576","MEAN_MOTION_DOT":"0.00002032","OBJECT_ID":"2021-012S","GP_ID":"193626134","SITE":"AFETR","PERIOD":"95.592","TLE_LINE2":"2 47636  53.0576  30.2731 0003398 190.7088 169.3830 15.06403139 51329","MEAN_ANOMALY":"169.3830","RCS_SIZE":"LARGE","TLE_LINE1":"1 47636U 21012S   22010.77681200  .00002032  00000-0  15530-3 0  9992","BSTAR":"0.00015530000000","OBJECT_NAME":"STARLINK-2013","REF_FRAME":"TEME","OBJECT_TYPE":"PAYLOAD","MEAN_MOTION_DDOT":"0.0000000000000","FILE":"3269118"},{"CLASSIFICATION_TYPE":"U","ARG_OF_PERICENTER":"79.4941","MEAN_MOTION":"15.06403505","CENTER_NAME":"EARTH","RA_OF_ASC_NODE":"30.4107","TIME_SYSTEM":"UTC","SEMIMAJOR_AXIS":"6925.338","DECAY_DATE":null,"ECCENTRICITY":"0.00012700","REV_AT_EPOCH":"5133","EPHEMERIS_TYPE":"0","NORAD_CAT_ID":"47637","MEAN_ELEMENT_THEORY":"SGP4","COUNTRY_CODE":"US","APOAPSIS":"548.082","ELEMENT_SET_NO":"999","LAUNCH_DATE":"2021-02-16","EPOCH":"2022-01-10T17:56:08.832480","GP_ID":"193624384","SITE":"AFETR","TLE_LINE2":"2 47637  53.0565  30.4107 0001270  79.4941 280.6191 15.06403505 51330","PERIOD":"95.592","MEAN_ANOMALY":"280.6191","INCLINATION":"53.0565","MEAN_MOTION_DOT":"0.00002831","PERIAPSIS":"546.323","OBJECT_ID":"2021-012T","OBJECT_TYPE":"PAYLOAD","REF_FRAME":"TEME","FILE":"3269118","MEAN_MOTION_DDOT":"0.0000000000000","RCS_SIZE":"LARGE","OBJECT_NAME":"STARLINK-2014","TLE_LINE1":"1 47637U 21012T   22010.74732445  .00002831  00000-0  20884-3 0  9993","BSTAR":"0.00020884000000"},{"OBJECT_TYPE":"PAYLOAD","REF_FRAME":"TEME","FILE":"3268856","MEAN_MOTION_DDOT":"0.0000000000000","RCS_SIZE":"LARGE","OBJECT_NAME":"STARLINK-2015","TLE_LINE1":"1 47638U 21012U   22010.54598014  .00000240  00000-0  35073-4 0  9993","BSTAR":"0.00003507300000","GP_ID":"193594723","SITE":"AFETR","MEAN_ANOMALY":"307.9288","TLE_LINE2":"2 47638  53.0511 316.3824 0003082  52.1979 307.9288 15.06407841 52323","PERIOD":"95.592","MEAN_MOTION_DOT":"0.00000240","INCLINATION":"53.0511","PERIAPSIS":"545.055","OBJECT_ID":"2021-012U","TIME_SYSTEM":"UTC","EPHEMERIS_TYPE":"0","DECAY_DATE":null,"REV_AT_EPOCH":"5232","SEMIMAJOR_AXIS":"6925.325","ECCENTRICITY":"0.00030820","MEAN_ELEMENT_THEORY":"SGP4","NORAD_CAT_ID":"47638","ELEMENT_SET_NO":"999","COUNTRY_CODE":"US","APOAPSIS":"549.324","LAUNCH_DATE":"2021-02-16","EPOCH":"2022-01-10T13:06:12.684096","CLASSIFICATION_TYPE":"U","ARG_OF_PERICENTER":"52.1979","CENTER_NAME":"EARTH","MEAN_MOTION":"15.06407841","RA_OF_ASC_NODE":"316.3824"}];
